IRIDIUM 159             
1 43578U 18061K   25079.98993470  .00000051  00000+0  11074-4 0  9997
2 43578  86.3932 246.0388 0002194  97.2862 262.8583 14.34217876348429
IRIDIUM 180             
1 43922U 19002A   25079.22197769  .00000125  00000+0  37688-4 0  9991
2 43922  86.4049 183.3127 0002315  98.3567 261.7891 14.34217732323924
IRIDIUM 176             
1 43923U 19002B   25079.81436496  .00000132  00000+0  17064-4 0  9994
2 43923  86.6170 183.0651 0002929  92.1726 267.9827 14.72220451332540
IRIDIUM 168             
1 43924U 19002C   25079.77377887  .00000889  00000+0  31041-3 0  9997
2 43924  86.4050 183.1459 0002206  98.3601 261.7845 14.34222743323985
IRIDIUM 173             
1 43925U 19002D   25079.83086073  .00000889  00000+0  31031-3 0  9998
2 43925  86.4046 183.0296 0002262  91.4914 268.6541 14.34222763323972
IRIDIUM 169             
1 43926U 19002E   25079.81835929  .00001225  00000+0  39383-3 0  9992
2 43926  86.4262 214.6035 0002971  63.1873 296.9629 14.38635056325040
IRIDIUM 172             
1 43927U 19002F   25079.82453672  .00000166  00000+0  52396-4 0  9998
2 43927  86.4048 183.0390 0002433  99.6866 260.4605 14.34202749323981
IRIDIUM 175             
1 43928U 19002G   25079.53731565  .00000366  00000+0  54142-4 0  9990
2 43928  86.1522 140.7721 0001506  72.6993 287.4389 14.72233928332495
